CCSDS_OMM_VERS = 2.0
CREATION_DATE  = 
ORIGINATOR     = 

OBJECT_NAME    = STARLINK-36215
OBJECT_ID      = 2025-298AB
CENTER_NAME    = EARTH
REF_FRAME      = TEME
TIME_SYSTEM    = UTC
MEAN_ELEMENT_THEORY = SGP/SGP4

EPOCH          = 2026-01-08T14:48:42.263712
MEAN_MOTION    = 15.52552480
ECCENTRICITY   = .00040425
INCLINATION    = 70.0002
RA_OF_ASC_NODE = 174.5530
ARG_OF_PERICENTER = 291.1334
MEAN_ANOMALY   = 68.9420

EPHEMERIS_TYPE = 0
CLASSIFICATION_TYPE = U
NORAD_CAT_ID   = 67100
ELEMENT_SET_NO = 999
REV_AT_EPOCH   = 400
BSTAR          = .18062142E-2
MEAN_MOTION_DOT = .112686E-2
MEAN_MOTION_DDOT = 0

CCSDS_OMM_VERS = 2.0
CREATION_DATE  = 
ORIGINATOR     = 

OBJECT_NAME    = STARLINK-36200
OBJECT_ID      = 2025-298AC
CENTER_NAME    = EARTH
REF_FRAME      = TEME
TIME_SYSTEM    = UTC
MEAN_ELEMENT_THEORY = SGP/SGP4

EPOCH          = 2026-01-08T14:00:01.999872
MEAN_MOTION    = 15.42702788
ECCENTRICITY   = .00035193
INCLINATION    = 70.0006
RA_OF_ASC_NODE = 174.7608
ARG_OF_PERICENTER = 268.3764
MEAN_ANOMALY   = 162.4842

EPHEMERIS_TYPE = 0
CLASSIFICATION_TYPE = U
NORAD_CAT_ID   = 67101
ELEMENT_SET_NO = 999
REV_AT_EPOCH   = 528
BSTAR          = -.12467419E-3
MEAN_MOTION_DOT = -.5603E-4
MEAN_MOTION_DDOT = 0

CCSDS_OMM_VERS = 2.0
CREATION_DATE  = 
ORIGINATOR     = 

OBJECT_NAME    = STARLINK-36255
OBJECT_ID      = 2025-299A
CENTER_NAME    = EARTH
REF_FRAME      = TEME
TIME_SYSTEM    = UTC
MEAN_ELEMENT_THEORY = SGP/SGP4

EPOCH          = 2026-01-08T10:52:29.975808
MEAN_MOTION    = 15.40750156
ECCENTRICITY   = .00036004
INCLINATION    = 43.0006
RA_OF_ASC_NODE = 156.1266
ARG_OF_PERICENTER = 305.2137
MEAN_ANOMALY   = 54.8382

EPHEMERIS_TYPE = 0
CLASSIFICATION_TYPE = U
NORAD_CAT_ID   = 67102
ELEMENT_SET_NO = 999
REV_AT_EPOCH   = 382
BSTAR          = .11780627E-2
MEAN_MOTION_DOT = .49315E-3
MEAN_MOTION_DDOT = 0

CCSDS_OMM_VERS = 2.0
CREATION_DATE  = 
ORIGINATOR     = 

OBJECT_NAME    = STARLINK-36256
OBJECT_ID      = 2025-299B
CENTER_NAME    = EARTH
REF_FRAME      = TEME
TIME_SYSTEM    = UTC
MEAN_ELEMENT_THEORY = SGP/SGP4

EPOCH          = 2026-01-08T14:00:01.999872
MEAN_MOTION    = 15.40678484
ECCENTRICITY   = .00015328
INCLINATION    = 43.0004
RA_OF_ASC_NODE = 155.3155
ARG_OF_PERICENTER = 271.3066
MEAN_ANOMALY   = 116.8386

EPHEMERIS_TYPE = 0
CLASSIFICATION_TYPE = U
NORAD_CAT_ID   = 67103
ELEMENT_SET_NO = 999
REV_AT_EPOCH   = 512
BSTAR          = .32937069E-3
MEAN_MOTION_DOT = .1347E-3
MEAN_MOTION_DDOT = 0

CCSDS_OMM_VERS = 2.0
CREATION_DATE  = 
ORIGINATOR     = 

OBJECT_NAME    = STARLINK-36258
OBJECT_ID      = 2025-299C
CENTER_NAME    = EARTH
REF_FRAME      = TEME
TIME_SYSTEM    = UTC
MEAN_ELEMENT_THEORY = SGP/SGP4

EPOCH          = 2026-01-08T10:10:23.815200
MEAN_MOTION    = 15.50674912
ECCENTRICITY   = .00044332
INCLINATION    = 42.9999
RA_OF_ASC_NODE = 155.8986
ARG_OF_PERICENTER = 291.0097
MEAN_ANOMALY   = 69.0289

EPHEMERIS_TYPE = 0
CLASSIFICATION_TYPE = U
NORAD_CAT_ID   = 67104
ELEMENT_SET_NO = 999
REV_AT_EPOCH   = 382
BSTAR          = .21602673E-2
MEAN_MOTION_DOT = .128971E-2
MEAN_MOTION_DDOT = 0

CCSDS_OMM_VERS = 2.0
CREATION_DATE  = 
ORIGINATOR     = 

OBJECT_NAME    = STARLINK-36261
OBJECT_ID      = 2025-299D
CENTER_NAME    = EARTH
REF_FRAME      = TEME
TIME_SYSTEM    = UTC
MEAN_ELEMENT_THEORY = SGP/SGP4

EPOCH          = 2026-01-08T14:00:01.999872
MEAN_MOTION    = 15.40672182
ECCENTRICITY   = .00015055
INCLINATION    = 43.0005
RA_OF_ASC_NODE = 155.3462
ARG_OF_PERICENTER = 271.3147
MEAN_ANOMALY   = 104.3963

EPHEMERIS_TYPE = 0
CLASSIFICATION_TYPE = U
NORAD_CAT_ID   = 67105
ELEMENT_SET_NO = 999
REV_AT_EPOCH   = 512
BSTAR          = .39870243E-3
MEAN_MOTION_DOT = .16372E-3
MEAN_MOTION_DDOT = 0

CCSDS_OMM_VERS = 2.0
CREATION_DATE  = 
ORIGINATOR     = 

OBJECT_NAME    = STARLINK-36259
OBJECT_ID      = 2025-299E
CENTER_NAME    = EARTH
REF_FRAME      = TEME
TIME_SYSTEM    = UTC
MEAN_ELEMENT_THEORY = SGP/SGP4

EPOCH          = 2026-01-08T14:00:01.999872
MEAN_MOTION    = 15.40679046
ECCENTRICITY   = .00017469
INCLINATION    = 42.9996
RA_OF_ASC_NODE = 155.1037
ARG_OF_PERICENTER = 283.5537
MEAN_ANOMALY   = 191.6601

EPHEMERIS_TYPE = 0
CLASSIFICATION_TYPE = U
NORAD_CAT_ID   = 67106
ELEMENT_SET_NO = 999
REV_AT_EPOCH   = 512
BSTAR          = .40627615E-3
MEAN_MOTION_DOT = .16693E-3
MEAN_MOTION_DDOT = 0

CCSDS_OMM_VERS = 2.0
CREATION_DATE  = 
ORIGINATOR     = 

OBJECT_NAME    = STARLINK-36196
OBJECT_ID      = 2025-299F
CENTER_NAME    = EARTH
REF_FRAME      = TEME
TIME_SYSTEM    = UTC
MEAN_ELEMENT_THEORY = SGP/SGP4

EPOCH          = 2026-01-07T17:09:03.918816
MEAN_MOTION    = 15.50654455
ECCENTRICITY   = .00019184
INCLINATION    = 43.0000
RA_OF_ASC_NODE = 160.0353
ARG_OF_PERICENTER = 268.6018
MEAN_ANOMALY   = 91.4623

EPHEMERIS_TYPE = 0
CLASSIFICATION_TYPE = U
NORAD_CAT_ID   = 67107
ELEMENT_SET_NO = 999
REV_AT_EPOCH   = 371
BSTAR          = .15878135E-2
MEAN_MOTION_DOT = .94191E-3
MEAN_MOTION_DDOT = 0

CCSDS_OMM_VERS = 2.0
CREATION_DATE  = 
ORIGINATOR     = 

OBJECT_NAME    = STARLINK-36208
OBJECT_ID      = 2025-299G
CENTER_NAME    = EARTH
REF_FRAME      = TEME
TIME_SYSTEM    = UTC
MEAN_ELEMENT_THEORY = SGP/SGP4

EPOCH          = 2026-01-08T10:08:25.481760
MEAN_MOTION    = 15.50660115
ECCENTRICITY   = .0004758
INCLINATION    = 43.0002
RA_OF_ASC_NODE = 155.8885
ARG_OF_PERICENTER = 292.0996
MEAN_ANOMALY   = 67.9359

EPHEMERIS_TYPE = 0
CLASSIFICATION_TYPE = U
NORAD_CAT_ID   = 67108
ELEMENT_SET_NO = 999
REV_AT_EPOCH   = 382
BSTAR          = .19141797E-2
MEAN_MOTION_DOT = .113967E-2
MEAN_MOTION_DDOT = 0

CCSDS_OMM_VERS = 2.0
CREATION_DATE  = 
ORIGINATOR     = 

OBJECT_NAME    = STARLINK-35764
OBJECT_ID      = 2025-299H
CENTER_NAME    = EARTH
REF_FRAME      = TEME
TIME_SYSTEM    = UTC
MEAN_ELEMENT_THEORY = SGP/SGP4

EPOCH          = 2026-01-08T14:00:01.999872
MEAN_MOTION    = 15.40661567
ECCENTRICITY   = .00014756
INCLINATION    = 43.0002
RA_OF_ASC_NODE = 155.2248
ARG_OF_PERICENTER = 267.9643
MEAN_ANOMALY   = 157.5367

EPHEMERIS_TYPE = 0
CLASSIFICATION_TYPE = U
NORAD_CAT_ID   = 67109
ELEMENT_SET_NO = 999
REV_AT_EPOCH   = 501
BSTAR          = .31183956E-3
MEAN_MOTION_DOT = .12728E-3
MEAN_MOTION_DDOT = 0

CCSDS_OMM_VERS = 2.0
CREATION_DATE  = 
ORIGINATOR     = 

OBJECT_NAME    = STARLINK-35781
OBJECT_ID      = 2025-299J
CENTER_NAME    = EARTH
REF_FRAME      = TEME
TIME_SYSTEM    = UTC
MEAN_ELEMENT_THEORY = SGP/SGP4

EPOCH          = 2026-01-07T09:23:19.023360
MEAN_MOTION    = 15.49882893
ECCENTRICITY   = .0002324
INCLINATION    = 42.9989
RA_OF_ASC_NODE = 161.9098
ARG_OF_PERICENTER = 326.7971
MEAN_ANOMALY   = 33.2743

EPHEMERIS_TYPE = 0
CLASSIFICATION_TYPE = U
NORAD_CAT_ID   = 67110
ELEMENT_SET_NO = 999
REV_AT_EPOCH   = 366
BSTAR          = .30968805E-3
MEAN_MOTION_DOT = .17425E-3
MEAN_MOTION_DDOT = 0

CCSDS_OMM_VERS = 2.0
CREATION_DATE  = 
ORIGINATOR     = 

OBJECT_NAME    = STARLINK-35875
OBJECT_ID      = 2025-299K
CENTER_NAME    = EARTH
REF_FRAME      = TEME
TIME_SYSTEM    = UTC
MEAN_ELEMENT_THEORY = SGP/SGP4

EPOCH          = 2026-01-08T10:07:25.915008
MEAN_MOTION    = 15.50627989
ECCENTRICITY   = .00016349
INCLINATION    = 43.0000
RA_OF_ASC_NODE = 155.8834
ARG_OF_PERICENTER = 269.8071
MEAN_ANOMALY   = 90.2602

EPHEMERIS_TYPE = 0
CLASSIFICATION_TYPE = U
NORAD_CAT_ID   = 67111
ELEMENT_SET_NO = 999
REV_AT_EPOCH   = 382
BSTAR          = .16179075E-2
MEAN_MOTION_DOT = .95912E-3
MEAN_MOTION_DDOT = 0

CCSDS_OMM_VERS = 2.0
CREATION_DATE  = 
ORIGINATOR     = 

OBJECT_NAME    = STARLINK-35906
OBJECT_ID      = 2025-299L
CENTER_NAME    = EARTH
REF_FRAME      = TEME
TIME_SYSTEM    = UTC
MEAN_ELEMENT_THEORY = SGP/SGP4

EPOCH          = 2026-01-08T11:39:12.152448
MEAN_MOTION    = 15.50592700
ECCENTRICITY   = .00018387
INCLINATION    = 43.0004
RA_OF_ASC_NODE = 155.5002
ARG_OF_PERICENTER = 270.8240
MEAN_ANOMALY   = 89.2409

EPHEMERIS_TYPE = 0
CLASSIFICATION_TYPE = U
NORAD_CAT_ID   = 67112
ELEMENT_SET_NO = 999
REV_AT_EPOCH   = 383
BSTAR          = .14974161E-2
MEAN_MOTION_DOT = .88549E-3
MEAN_MOTION_DDOT = 0

CCSDS_OMM_VERS = 2.0
CREATION_DATE  = 
ORIGINATOR     = 

OBJECT_NAME    = STARLINK-35789
OBJECT_ID      = 2025-299M
CENTER_NAME    = EARTH
REF_FRAME      = TEME
TIME_SYSTEM    = UTC
MEAN_ELEMENT_THEORY = SGP/SGP4

EPOCH          = 2026-01-08T14:00:01.999872
MEAN_MOTION    = 15.44251872
ECCENTRICITY   = .00010944
INCLINATION    = 42.9994
RA_OF_ASC_NODE = 154.9642
ARG_OF_PERICENTER = 279.8644
MEAN_ANOMALY   = 252.5654

EPHEMERIS_TYPE = 0
CLASSIFICATION_TYPE = U
NORAD_CAT_ID   = 67113
ELEMENT_SET_NO = 999
REV_AT_EPOCH   = 501
BSTAR          = -.50162216E-1
MEAN_MOTION_DOT = -.2092884E-1
MEAN_MOTION_DDOT = 0

CCSDS_OMM_VERS = 2.0
CREATION_DATE  = 
ORIGINATOR     = 

OBJECT_NAME    = STARLINK-36180
OBJECT_ID      = 2025-299N
CENTER_NAME    = EARTH
REF_FRAME      = TEME
TIME_SYSTEM    = UTC
MEAN_ELEMENT_THEORY = SGP/SGP4

EPOCH          = 2026-01-08T10:05:27.433824
MEAN_MOTION    = 15.50628837
ECCENTRICITY   = .0001142
INCLINATION    = 42.9999
RA_OF_ASC_NODE = 155.8717
ARG_OF_PERICENTER = 252.2340
MEAN_ANOMALY   = 107.8395

EPHEMERIS_TYPE = 0
CLASSIFICATION_TYPE = U
NORAD_CAT_ID   = 67114
ELEMENT_SET_NO = 999
REV_AT_EPOCH   = 382
BSTAR          = .14324071E-2
MEAN_MOTION_DOT = .84756E-3
MEAN_MOTION_DDOT = 0

